{"type": "FeatureCollection", "features": [{"type": "Feature", "properties": {"id": "6", "name": "#6-Hwy 21W"}, "geometry": {"type": "MultiPolygon", "coordinates": [[[[-97.52188397929645, 30.08322388105245], [-97.51316851336443, 30.06911312668636], [-97.51067838024102, 30.05610909815289], [-97.51261515044813, 30.04573354347194], [-97.51662703159144, 30.03964655139244], [-97.51247680971903, 30.03245283348031], [-97.52893935647948, 30.0270575450462], [-97.571411, 30.001482], [-97.65344601265097, 30.06966648960266], [-97.61442663960456, 30.10311706019942], [-97.60846839815301, 30.10237892136409], [-97.57295826610397, 30.07178790177002], [-97.546474, 30.08427299999998], [-97.522351, 30.08545199999997], [-97.52188397929645, 30.08322388105245]]]]}}, {"type": "Feature", "properties": {"id": "5", "name": "#5-Wolflane"}, "geometry": {"type": "MultiPolygon", "coordinates": [[[[-97.60946400000002, 30.103697], [-97.60846839815301, 30.10237892136409], [-97.5993707009203, 30.09476880510501], [-97.59619281726694, 30.09765439296213], [-97.58990005215676, 30.09241374929561], [-97.58531962237724, 30.09640588527169], [-97.57773309413486, 30.08990695621174], [-97.56824017937998, 30.09831012679484], [-97.55909080367204, 30.10609709514254], [-97.55068536847811, 30.09873148163038], [-97.54303416777624, 30.09228410450126], [-97.53468104635155, 30.09961846111966], [-97.52895968636042, 30.09466904867475], [-97.52448373260644, 30.09841180541905], [-97.51777862673578, 30.09248724701383], [-97.51571348176653, 30.09433884877863], [-97.50246965327793, 30.08612878397815], [-97.50067014652004, 30.08600904894751], [-97.49507825298042, 30.0836658659225], [-97.46572252616812, 30.08784245143615], [-97.4626022382143, 30.08578762766168], [-97.45841648608113, 30.08418943139266], [-97.45141486433113, 30.087157510178], [-97.44568731627984, 30.09415371359105], [-97.45177601344965, 30.10273774943175], [-97.45395853383393, 30.10757052200738], [-97.46640919945109, 30.11393419554503], [-97.46779260674188, 30.13330189761615], [-97.54181423724494, 30.14517572531038], [-97.54625710152207, 30.14549065664276], [-97.54790601177591, 30.14423439382254], [-97.55352229857807, 30.14708650239147], [-97.56316108216716, 30.14953938507468], [-97.57788476849471, 30.13566712104726], [-97.57889569904945, 30.13432890338115], [-97.60650298040747, 30.10919765539477], [-97.60946400000002, 30.103697]]]]}}, {"type": "Feature", "properties": {"id": "4", "name": "#4-Bluebonnet"}, "geometry": {"type": "MultiPolygon", "coordinates": [[[[-97.53889974148868, 30.17245232394561], [-97.49284899999998, 30.20978100000001], [-97.4869435572155, 30.20537509126481], [-97.49005184981262, 30.20263270532493], [-97.48563767034604, 30.19231622257046], [-97.47597410751223, 30.18918209408382], [-97.45925875558345, 30.19884565691763], [-97.43575279193358, 30.19179386782268], [-97.42870100283864, 30.1861785542841], [-97.44228222628078, 30.17285850821585], [-97.43327160688168, 30.16019140558232], [-97.42661158384756, 30.15522903547847], [-97.41394448121402, 30.15966905083454], [-97.40519503918881, 30.16502318699922], [-97.40036325777189, 30.17063850053782], [-97.40179973332826, 30.18487266741466], [-97.38063794742186, 30.18158281206485], [-97.38311243999999, 30.16157157000001], [-97.37067741492815, 30.15889493249584], [-97.34992630556623, 30.16055502124479], [-97.35712002347837, 30.14976444437659], [-97.36514378576496, 30.15419134770714], [-97.37040073346999, 30.15114785166739], [-97.36450170333859, 30.14258235228787], [-97.3615469268089, 30.13593037146865], [-97.35435320889678, 30.11573262502306], [-97.42241684760384, 30.11545594356491], [-97.44707089456602, 30.12182915535357], [-97.44870158612892, 30.11199742533792], [-97.45395853383393, 30.10757052200737], [-97.46640919945109, 30.11393419554503], [-97.46779260674188, 30.13330189761614], [-97.50494675275313, 30.13921854476805], [-97.53889974148868, 30.17245232394561]]]]}}, {"type": "Feature", "properties": {"id": "3", "name": "#3-Greenport STR60"}, "geometry": {"type": "MultiPolygon", "coordinates": [[[[-97.49206621285396, 30.21564096657067], [-97.4626044611513, 30.26657950923415], [-97.450398, 30.282368], [-97.449321, 30.2842], [-97.4280909392713, 30.27080002342359], [-97.41894973118525, 30.27145296685831], [-97.40471556430839, 30.26596824200668], [-97.4035402661259, 30.26022233978116], [-97.39962260551759, 30.25813292079006], [-97.39257081642263, 30.2573493886684], [-97.38447431783213, 30.25369290543398], [-97.36501660347753, 30.23932814987018], [-97.40179973332826, 30.18487266741467], [-97.40036325777189, 30.17063850053782], [-97.40519503918881, 30.16502318699924], [-97.41394448121405, 30.15966905083455], [-97.42151862505676, 30.15718786578262], [-97.42661158384756, 30.15522903547847], [-97.43327160688168, 30.16019140558232], [-97.44228222628078, 30.17285850821585], [-97.42870100283864, 30.1861785542841], [-97.4357527919336, 30.19179386782268], [-97.45925875558345, 30.19884565691763], [-97.47597410751223, 30.18918209408382], [-97.48563767034604, 30.19231622257045], [-97.49003481755882, 30.20259289884362], [-97.49005184981262, 30.20263270532494], [-97.4869435572155, 30.20537509126482], [-97.492482, 30.21001099999999], [-97.491115, 30.212372], [-97.49206621285396, 30.21564096657067]]]]}}, {"type": "Feature", "properties": {"id": "10a", "name": "#10A-Swiftex"}, "geometry": {"type": "MultiPolygon", "coordinates": [[[[-97.37410978176989, 30.22206686935551], [-97.29323138945784, 30.15270453837787], [-97.26491681965828, 30.1577500290248], [-97.26244542267736, 30.15998752163175], [-97.26279046783289, 30.16422056780006], [-97.26351701988702, 30.16654877044425], [-97.26548430605206, 30.16570564780209], [-97.27006743426072, 30.1636735060492], [-97.27251032807006, 30.16414911369349], [-97.27536397393578, 30.16704599661783], [-97.27573148893366, 30.16858091219714], [-97.2754072109944, 30.17346669981582], [-97.27165639616324, 30.17378557312276], [-97.2679326044937, 30.1737423360642], [-97.26645173523764, 30.17375854996116], [-97.26643011670835, 30.17467733745581], [-97.26646794913461, 30.17665002825318], [-97.26654901861939, 30.17853084030107], [-97.26657604178104, 30.17977390573503], [-97.26658685104564, 30.18209789763327], [-97.26665711126584, 30.18499478055762], [-97.26664208062462, 30.18684527470518], [-97.26810014809568, 30.1872971539266], [-97.26971613315983, 30.18885368803518], [-97.2698134165416, 30.18977247552985], [-97.27082948741806, 30.18986975891164], [-97.27113214682807, 30.19073450008309], [-97.27192662777934, 30.19048048236396], [-97.27321833490412, 30.19111822897791], [-97.27383986762112, 30.19304227808438], [-97.27365070548986, 30.19531762829173], [-97.27269408556897, 30.19670121416604], [-97.27075382256558, 30.20240310126525], [-97.26456011392511, 30.20710513138499], [-97.2597824189529, 30.21112617783221], [-97.25852854425428, 30.21294213429224], [-97.25519929074423, 30.21588225427515], [-97.25967432630647, 30.22022757866166], [-97.25861501837144, 30.22247590570742], [-97.25542088066938, 30.22863178192164], [-97.25409674575064, 30.2299559168404], [-97.26061473233038, 30.23591182165873], [-97.26731647640906, 30.2419325820649], [-97.27035737780332, 30.24464866954687], [-97.27468839489563, 30.24103541309952], [-97.2804713514797, 30.23631176445052], [-97.28560575218516, 30.23209615123972], [-97.29064286950883, 30.22794539361679], [-97.29797155093678, 30.22196787026919], [-97.3041760688419, 30.21686589735766], [-97.31035299999999, 30.21179], [-97.31363417540457, 30.22462694937137], [-97.31964412654612, 30.24801819805893], [-97.32556760357053, 30.2703285202822], [-97.32779003237974, 30.27845923522924], [-97.34009525525082, 30.27115002439506], [-97.35422496941058, 30.26385045423849], [-97.35540499999998, 30.26004900000001], [-97.36577806804269, 30.23911136399307], [-97.37410978176989, 30.22206686935551]]]]}}, {"type": "Feature", "properties": {"id": "9a", "name": "#9A-Bastrop City STR 260"}, "geometry": {"type": "MultiPolygon", "coordinates": [[[[-97.36077865550811, 30.21138772075569], [-97.29323138945784, 30.15270453837787], [-97.2953997683737, 30.15295239503401], [-97.29703237091225, 30.15099222375575], [-97.2992984908463, 30.15006952695593], [-97.30098708451783, 30.14829015257011], [-97.30382830972238, 30.14683212324114], [-97.30679222288164, 30.14471121815611], [-97.31015577737318, 30.14147309190854], [-97.31063002288782, 30.14098699025605], [-97.3108967859898, 30.1408862130842], [-97.31131175081505, 30.14043567984532], [-97.3124517547861, 30.13922595739219], [-97.31343399949296, 30.13860983461408], [-97.31621095854628, 30.13752444416741], [-97.31563924113587, 30.13446018636123], [-97.31220096115494, 30.12646914944005], [-97.3204054085577, 30.12582891799533], [-97.3421144425149, 30.12436756471983], [-97.34992630556621, 30.16055502124479], [-97.37067741492815, 30.15889493249584], [-97.38063794742186, 30.18158281206484], [-97.36077865550811, 30.21138772075569]]]]}}, {"type": "Feature", "properties": {"id": "8a", "name": "#8A-McDade"}, "geometry": {"type": "MultiPolygon", "coordinates": [[[[-97.263007, 30.368246], [-97.21058300000001, 30.34309199999998], [-97.21342418521525, 30.33904031330192], [-97.21401781434476, 30.33803686751945], [-97.21487024527116, 30.33611039387574], [-97.21524944796461, 30.33323203169259], [-97.21472264038752, 30.33223214597221], [-97.21380933060503, 30.331510604387], [-97.2121270734581, 30.3305226127632], [-97.21612650137604, 30.32335607030484], [-97.21860901546783, 30.31923829269103], [-97.22126287780023, 30.32012529768374], [-97.22373736908851, 30.31585723702422], [-97.21239345586625, 30.31045557563906], [-97.21017059655769, 30.31088217890678], [-97.20960851479626, 30.31027686008676], [-97.20720885804549, 30.30472089806024], [-97.20491729394115, 30.29929464720942], [-97.20502538658761, 30.29747869074939], [-97.20740342480906, 30.29726250545652], [-97.21131637860985, 30.29741383516152], [-97.21440782829777, 30.2966788051658], [-97.21903419356501, 30.29410620018076], [-97.22861120203875, 30.28883127903494], [-97.23332404142313, 30.28638838522561], [-97.23753965463393, 30.28362121347699], [-97.24073919696825, 30.28063785643551], [-97.24415492459546, 30.27644386175401], [-97.24507911672241, 30.27524403337863], [-97.24590602546762, 30.27419553470825], [-97.24641406090583, 30.27359562052057], [-97.24847863045267, 30.27125541472534], [-97.24905692611107, 30.2690665386351], [-97.24950010596145, 30.26709384783776], [-97.24992166728254, 30.26510494314345], [-97.25043510735306, 30.26321332183091], [-97.25117013734884, 30.260727190963], [-97.25201325999095, 30.25775464318617], [-97.25232132403328, 30.25723579848331], [-97.25427239630136, 30.2541227302661], [-97.25696390319747, 30.25138798631141], [-97.25380759792174, 30.248372201476], [-97.25288881042704, 30.24499971090737], [-97.24469538782762, 30.23788721477225], [-97.24804625986698, 30.23507680596505], [-97.24975412368057, 30.23410397214718], [-97.25403459247924, 30.23006130717068], [-97.26253067448869, 30.23756293683295], [-97.27035737780332, 30.24464866954687], [-97.26877842945235, 30.25254457762822], [-97.2662490615259, 30.26594806578562], [-97.26362972665665, 30.2797547764395], [-97.27692861499322, 30.28987977770533], [-97.28361586128868, 30.29498107087351], [-97.28233324731472, 30.30628824143349], [-97.28094966144043, 30.31858918459728], [-97.27998, 30.327305], [-97.28701600000001, 30.330497], [-97.2802146314447, 30.34113731064269], [-97.27282109442889, 30.35272484234005], [-97.26305599999999, 30.36827], [-97.263007, 30.368246]]]]}}, {"type": "Feature", "properties": {"id": "2", "name": "#2- Cedar Hill"}, "geometry": {"type": "MultiPolygon", "coordinates": [[[[-97.39694399999998, 30.373365], [-97.4210079682254, 30.34124221067754], [-97.44902399999998, 30.284706], [-97.4280909392713, 30.27080002342359], [-97.41894973118525, 30.27145296685831], [-97.40471556430839, 30.26596824200668], [-97.4035402661259, 30.26022233978116], [-97.39962260551759, 30.25813292079006], [-97.39257081642263, 30.2573493886684], [-97.38447431783213, 30.25369290543398], [-97.36501660347753, 30.23932814987018], [-97.3542249694106, 30.26385045423849], [-97.34900754762819, 30.26611133701087], [-97.32779003237974, 30.27845923522923], [-97.32187695435967, 30.28454622730871], [-97.29926812663591, 30.30350285978479], [-97.28361586128868, 30.29498107087351], [-97.28100715039749, 30.32193775008263], [-97.28138399999999, 30.32794], [-97.28701600000001, 30.330497], [-97.2852716463093, 30.33297925368014], [-97.29849627643951, 30.33913867045311], [-97.30230062209341, 30.33388505026439], [-97.34233683111778, 30.35163866331592], [-97.34759045130647, 30.34493576859238], [-97.39694399999998, 30.373365]]]]}}, {"type": "Feature", "properties": {"id": "1", "name": "#1-Butler"}, "geometry": {"type": "MultiPolygon", "coordinates": [[[[-97.39634089628066, 30.37440464550747], [-97.369491, 30.419642], [-97.26365299999999, 30.368557], [-97.2852716463093, 30.33297925368014], [-97.29849627643951, 30.33913867045311], [-97.30230062209341, 30.33388505026439], [-97.34233683111778, 30.35163866331592], [-97.34725800189403, 30.34535992818759], [-97.39634089628066, 30.37440464550747]]]]}}, {"type": "Feature", "properties": {"id": "11", "name": "Section 11"}, "geometry": {"type": "MultiPolygon", "coordinates": [[[[-97.43743484920192, 29.98831981441853], [-97.46120381647876, 30.00421302643015], [-97.47620751408185, 29.99524321406605], [-97.48578657314445, 30.00939409677216], [-97.5027854586926, 30.02010937146313], [-97.51662703159144, 30.03964655139244], [-97.51261515044813, 30.04573354347194], [-97.51067838024102, 30.05610909815289], [-97.51077644003769, 30.07734001881111], [-97.50388165548512, 30.08369230400674], [-97.5004073859731, 30.08489250620179], [-97.49859970655942, 30.08221071220244], [-97.46572252616812, 30.08784245143615], [-97.45537230271145, 30.07551350878937], [-97.43101883575488, 30.03137284993055], [-97.430105580744, 30.01508646890334], [-97.42529413705952, 30.01209557750184], [-97.43401852485667, 29.99414430193058], [-97.43419586515951, 29.99130215613845], [-97.43435458429879, 29.98982026833806], [-97.43655806378342, 29.98674201798608], [-97.43743484920192, 29.98831981441853]]]]}}, {"type": "Feature", "properties": {"id": "18", "name": "Section 18"}, "geometry": {"type": "MultiPolygon", "coordinates": [[[[-97.32484138830655, 30.05216299433436], [-97.34123310007388, 30.05543149483135], [-97.34610135412545, 30.05102055668523], [-97.3453433316865, 30.04685143327084], [-97.34881760119848, 30.04047141107609], [-97.36392515699308, 30.02879937114739], [-97.36905268908536, 30.02539901032062], [-97.36987091229157, 30.02265974594457], [-97.36376151235179, 30.02077055400333], [-97.35579747314458, 30.01670866944382], [-97.34685156608995, 30.00763967568335], [-97.33714198404279, 29.99422360225531], [-97.31274146894845, 29.99236668907759], [-97.30856418655243, 29.99658133814946], [-97.30836684981485, 30.00300539941421], [-97.29437573831753, 30.00687641883933], [-97.2902613445116, 30.01796585266496], [-97.29246175038634, 30.02646112333611], [-97.29302298700577, 30.03289794555799], [-97.28455323824888, 30.03358120471864], [-97.28063309724327, 30.05567633270005], [-97.29413770547285, 30.06215235398878], [-97.29720173355203, 30.06706906830615], [-97.30155692082764, 30.07018864337287], [-97.30727703952739, 30.07176896909941], [-97.32484138830655, 30.05216299433436]]]]}}, {"type": "Feature", "properties": {"id": "15", "name": "#15-FM 353E"}, "geometry": {"type": "MultiPolygon", "coordinates": [[[[-97.35727922899089, 29.97272992386634], [-97.38197788476664, 29.98004452576916], [-97.3947071919755, 29.9819444223675], [-97.39026125311673, 29.98391395231721], [-97.38713313252111, 29.98575402325582], [-97.37692073881182, 30.00093460849937], [-97.37936230148371, 30.01207980748084], [-97.36987091229157, 30.02265974594457], [-97.36376151235179, 30.02077055400333], [-97.35579747314458, 30.01670866944382], [-97.34685156608995, 30.00763967568335], [-97.33714198404279, 29.99422360225531], [-97.34521488558876, 29.97310990318523], [-97.33913521647408, 29.9639903995132], [-97.341253, 29.94863999999999], [-97.34355247606523, 29.94413648006055], [-97.35875164885192, 29.93311707979018], [-97.36939106980262, 29.90708849639294], [-97.39427971524087, 29.9051885997946], [-97.42125824693728, 29.88466971653254], [-97.43721737836333, 29.89492915816357], [-97.42790788503147, 29.90594855843393], [-97.41764844340044, 29.91297817584779], [-97.41840840203979, 29.93406702808936], [-97.428477854011, 29.94698632495807], [-97.42762290054173, 29.95591583897026], [-97.4334010792232, 29.96103949769221], [-97.4349803888262, 29.96458065494434], [-97.42942780231014, 29.96560531162179], [-97.42505804013396, 29.96864514617913], [-97.4242030866647, 29.9718749703963], [-97.4216857236719, 29.97220745230101], [-97.41836090462482, 29.97249243679076], [-97.41522607523754, 29.97600724549769], [-97.41389614761871, 29.97643472223232], [-97.41308869156441, 29.97591225066778], [-97.41095130789131, 29.97467731787886], [-97.4110463027212, 29.97249243679076], [-97.4063915560553, 29.96912012032871], [-97.39974191796112, 29.97795463951099], [-97.39470719197551, 29.9819444223675], [-97.38197788476664, 29.98004452576916], [-97.37418830871346, 29.97766965502124], [-97.35727922899089, 29.97272992386634]]]]}}, {"type": "Feature", "properties": {"id": "14", "name": "#14-Hillbig"}, "geometry": {"type": "MultiPolygon", "coordinates": [[[[-97.41937577470816, 29.97278878678837], [-97.42468335335701, 29.9723303714886], [-97.42530635951887, 29.9692875868667], [-97.4349803888262, 29.96458065494434], [-97.4334010792232, 29.96103949769221], [-97.43457501349349, 29.95882137954384], [-97.43860068896048, 29.95746536597287], [-97.44384699999999, 29.96031899999999], [-97.44051652913979, 29.97141426762239], [-97.43655806378342, 29.98674201798608], [-97.43435458429879, 29.98982026833806], [-97.43401852485667, 29.99414430193058], [-97.42903321417202, 30.00338227359541], [-97.42529413705952, 30.01209557750184], [-97.43003912044652, 30.01701696785006], [-97.42978856141292, 30.02797438287091], [-97.39923575866968, 30.02490390943601], [-97.39416194864077, 30.02320666579715], [-97.39171085030154, 30.02091055189099], [-97.39143203981828, 30.01120601018592], [-97.37692073881182, 30.00093460849937], [-97.38713313252111, 29.98575402325582], [-97.39026125311675, 29.98391395231721], [-97.39550545529181, 29.98437397005186], [-97.39946160780981, 29.98004980334613], [-97.39974191796112, 29.97795463951099], [-97.4063915560553, 29.96912012032871], [-97.4110463027212, 29.97249243679076], [-97.41095130789131, 29.97467731787886], [-97.41389614761871, 29.97643472223232], [-97.41522607523754, 29.97600724549769], [-97.41937577470816, 29.97278878678837]]]]}}, {"type": "Feature", "properties": {"id": "13", "name": "Section 13"}, "geometry": {"type": "MultiPolygon", "coordinates": [[[[-97.5161840149292, 29.95227619418783], [-97.51604769154673, 29.95474991893782], [-97.49536563220703, 29.97847986070652], [-97.48709280847116, 29.97608509594087], [-97.47816686707193, 29.98653497855461], [-97.45909055031778, 30.00202504811057], [-97.43833089184321, 29.98891720729367], [-97.4374482146794, 29.98827050660537], [-97.43655806378342, 29.98674201798608], [-97.44384699999999, 29.96031899999999], [-97.43860068896048, 29.95746536597287], [-97.43457501349349, 29.95882137954384], [-97.42889844576833, 29.95594524136819], [-97.43156838412062, 29.94837168473997], [-97.42430400241372, 29.94148631425256], [-97.42670440680382, 29.93681184254552], [-97.4226616204626, 29.92935795522888], [-97.41988220485301, 29.91192343913233], [-97.43049451899877, 29.90737530449845], [-97.4390854399739, 29.90030042840131], [-97.45797613088614, 29.90382669070492], [-97.5161840149292, 29.95227619418783]]]]}}, {"type": "Feature", "properties": {"id": "12", "name": "#12-FM 20"}, "geometry": {"type": "MultiPolygon", "coordinates": [[[[-97.3731251004757, 30.11061440856603], [-97.35297202159143, 30.08236576473851], [-97.34855022403072, 30.07743861888514], [-97.33214110754095, 30.06384376961132], [-97.34610135412548, 30.05102055668524], [-97.3453433316865, 30.04685143327085], [-97.34881760119848, 30.04047141107609], [-97.35120330256714, 30.04358028327734], [-97.35802550451795, 30.03359965449744], [-97.37381763866338, 30.02374536279069], [-97.3865776830529, 30.00909026230374], [-97.38960977280881, 30.01123799254752], [-97.3907468064673, 30.02349268864436], [-97.39807435671078, 30.02601943010764], [-97.426425, 30.028068], [-97.43180635524537, 30.0341050027901], [-97.44684046695184, 30.06328886669084], [-97.44961988256142, 30.07200612473911], [-97.44945545192154, 30.08896117118615], [-97.443423882986, 30.09667058320791], [-97.44905685654751, 30.10087281406942], [-97.43980072169705, 30.10566668009128], [-97.41066074424108, 30.11408690535813], [-97.3731251004757, 30.11061440856603]]]]}}, {"type": "Feature", "properties": {"id": "7", "name": "#7-FM 812W"}, "geometry": {"type": "MultiPolygon", "coordinates": [[[[-97.51247680971903, 30.03245283348031], [-97.5027854586926, 30.02010937146313], [-97.48578657314445, 30.00939409677216], [-97.47620751408185, 29.99524321406605], [-97.47816686707193, 29.98653497855461], [-97.48709280847116, 29.97608509594087], [-97.49536563220703, 29.97847986070652], [-97.50102598528947, 29.97194868407293], [-97.51604769154673, 29.95474991893782], [-97.571411, 30.001482], [-97.52893935647948, 30.0270575450462], [-97.51247680971903, 30.03245283348031]]]]}}, {"type": "Feature", "properties": {"id": "19", "name": "Section 19"}, "geometry": {"type": "MultiPolygon", "coordinates": [[[[-97.30743111407901, 29.92696021385177], [-97.30412877557559, 29.93143869752621], [-97.29875333446991, 29.93655671546567], [-97.29520073628045, 29.94025643403079], [-97.2931530487219, 29.95518573340881], [-97.2949604907655, 29.97510084849747], [-97.29956268431395, 29.98476354617976], [-97.30946429814644, 29.98851204003741], [-97.32079527396186, 29.98888119159839], [-97.3306579791498, 29.99295263169845], [-97.33579367473313, 29.99013777763395], [-97.33472226778696, 29.98782665204413], [-97.33556068096372, 29.98674162931882], [-97.33539336929942, 29.9854109357047], [-97.33538986617356, 29.98462419212959], [-97.33682686018139, 29.98477111081189], [-97.33833295558242, 29.98412692797118], [-97.3374615336777, 29.97689262374773], [-97.34274873494009, 29.97004646730979], [-97.34052405869743, 29.96697389101023], [-97.33727420329146, 29.96381711694301], [-97.3417543293702, 29.94425326352599], [-97.34688752186085, 29.93362731414649], [-97.32583637912762, 29.91408031167639], [-97.3157865950665, 29.90786326416904], [-97.31451069991986, 29.91671292537764], [-97.30743111407901, 29.92696021385177]]]]}}, {"type": "Feature", "properties": {"id": "16", "name": "#16-FM 304-3"}, "geometry": {"type": "MultiPolygon", "coordinates": [[[[-97.42589329288354, 29.87613899722883], [-97.42491600000001, 29.878358], [-97.3998864371657, 29.89394798863366], [-97.38479336815844, 29.90253542444814], [-97.36631736989094, 29.90539790305297], [-97.36046230001742, 29.92621592926988], [-97.35955151137044, 29.92933863320242], [-97.35870577905536, 29.93168066115182], [-97.35577824411861, 29.93278661879459], [-97.33014604933904, 29.91444073319094], [-97.31778534627274, 29.90468228340176], [-97.3144024170125, 29.89349259431017], [-97.31960692356677, 29.8734552440764], [-97.30574992486612, 29.85439373882154], [-97.30653060084926, 29.84925428859924], [-97.30139115062698, 29.82401243181123], [-97.30100081263541, 29.8129528553835], [-97.28031289908236, 29.82466299513051], [-97.27647199999998, 29.822195], [-97.27881757469743, 29.8184420766975], [-97.31651385615564, 29.78576647901429], [-97.42589329288354, 29.87613899722883]]]]}}, {"type": "Feature", "properties": {"id": "26a", "name": "#26A-Hwy 2104E STR 79"}, "geometry": {"type": "MultiPolygon", "coordinates": [[[[-97.0853816626712, 29.99528992326648], [-97.08538899999998, 29.995288], [-97.0935635999936, 30.02450067590867], [-97.1200996431434, 30.03480593538429], [-97.12911674518456, 30.03257312916457], [-97.1459486689948, 30.01763050292489], [-97.15608217414581, 30.01694348562653], [-97.15896535773068, 30.01905991868851], [-97.16186854160351, 30.03752011616324], [-97.15943030031195, 30.03823222789153], [-97.14338464266365, 30.03911312456811], [-97.13800181599669, 30.04070955625966], [-97.13205880243025, 30.04167405142775], [-97.12301719330522, 30.04332696063288], [-97.11993529510568, 30.04521277275819], [-97.11209242857105, 30.05328289949976], [-97.10732175241144, 30.05684238556066], [-97.10253846890308, 30.06104478071247], [-97.09898017778619, 30.06382131696005], [-97.09407173670998, 30.06835036162457], [-97.0915564776659, 30.07068927483526], [-97.08774055908994, 30.07928172073635], [-97.08406839559863, 30.08928662724534], [-97.0825228356798, 30.09271200018302], [-97.07720085739851, 30.10166568586752], [-97.077232130961, 30.10310706287125], [-97.07806090887003, 30.10615541522372], [-97.07967064979653, 30.11014148983802], [-97.08101794470453, 30.11546170622904], [-97.0813794039813, 30.12077956986657], [-97.08135824984612, 30.130004497845], [-97.07998664492607, 30.13393851629516], [-97.07951239941146, 30.13540867739044], [-97.06007150669777, 30.13717151284229], [-97.05217080776647, 30.12171362362884], [-97.04904212509778, 30.11347482233972], [-97.04650491159462, 30.10662197465362], [-97.04356458940404, 30.0986072254567], [-97.04076654086786, 30.09116157087732], [-97.03825870747434, 30.08427118086736], [-97.03188337789261, 30.07840337193053], [-97.02446099999999, 30.05143499999999], [-97.0853816626712, 29.99528992326648]]]]}}, {"type": "Feature", "properties": {"id": "23", "name": "Section 23"}, "geometry": {"type": "MultiPolygon", "coordinates": [[[[-97.19813945319007, 30.0482872450322], [-97.1907121886283, 30.03775173350056], [-97.18010439228344, 30.02381883574601], [-97.17258677170511, 30.0190480380713], [-97.16904481585568, 30.01687949367371], [-97.16730998033763, 30.0131929681978], [-97.16702084108461, 30.01073528454719], [-97.17396018315691, 30.00683190463152], [-97.18639317103646, 30.0017719677038], [-97.18705205039902, 30.00107254191894], [-97.19579019675936, 29.99179666347487], [-97.22658352720518, 30.00235024620983], [-97.23945022396423, 29.98008652372786], [-97.2731349469402, 29.95825651012542], [-97.27964058013298, 29.95391942133023], [-97.29149528950651, 29.95435313020975], [-97.29033873249445, 29.96389472555916], [-97.29359154909083, 29.97827940339654], [-97.29956268431395, 29.98476354617976], [-97.3041451318258, 29.9866644417339], [-97.30667510028965, 29.98876070131823], [-97.30696423954268, 30.00191653733031], [-97.29292291456815, 30.00713911508787], [-97.28901953465251, 30.01877697002162], [-97.29100736701696, 30.02210207143126], [-97.29151336070973, 30.02506574877464], [-97.29216392402903, 30.03081239142826], [-97.29093508220373, 30.03095696105477], [-97.28847739855311, 30.02994497366922], [-97.28667027822179, 30.02799328371139], [-97.27958636652298, 30.02401761898247], [-97.27228560038442, 30.02155993533186], [-97.25761178329402, 30.01715056172342], [-97.25541376463137, 30.01521113349165], [-97.25023873234221, 30.01064492853064], [-97.24676906130604, 30.01093406778365], [-97.24387766877595, 30.01194605516919], [-97.2328180923482, 30.01433145400654], [-97.22898699724578, 30.02163222014512], [-97.21901169301687, 30.02228278346439], [-97.21142178762531, 30.02293334678367], [-97.20986766414035, 30.02380076454271], [-97.2076268349295, 30.02622230578669], [-97.20095856090694, 30.03397485200808], [-97.20216933152892, 30.03811315756682], [-97.2029644644747, 30.04266710080176], [-97.20450051675634, 30.04633555507437], [-97.20384995343706, 30.04958837167077], [-97.20234467103198, 30.05070339567453], [-97.20189826347924, 30.05103406793582], [-97.20135888778094, 30.05072351829135], [-97.19951286464187, 30.04966065648401], [-97.19813945319007, 30.0482872450322]]]]}}, {"type": "Feature", "properties": {"id": "22", "name": "#22-71E Edge"}, "geometry": {"type": "MultiPolygon", "coordinates": [[[[-97.16635215164662, 29.99414092603906], [-97.15505164819822, 30.01247787318709], [-97.11596204229893, 30.02724054616332], [-97.10071984814824, 30.0254337351655], [-97.09237585176452, 30.00531888303096], [-97.08685899999999, 29.993928], [-97.17080999999999, 29.918036], [-97.17650613770883, 29.93915650729347], [-97.18778081727402, 29.95597132194817], [-97.18082175935436, 29.98076452498452], [-97.16635215164662, 29.99414092603906]]]]}}, {"type": "Feature", "properties": {"id": "21", "name": "#21-Hwy 535E"}, "geometry": {"type": "MultiPolygon", "coordinates": [[[[-97.18147759813029, 29.99952374750087], [-97.17718629026889, 30.00471246790637], [-97.16949435412891, 30.0062921689515], [-97.16579660093615, 30.00395195706633], [-97.16635215164662, 29.99414092603906], [-97.17055576841531, 29.99069834148025], [-97.18082175935436, 29.98076452498452], [-97.18778081727402, 29.95597132194817], [-97.17650613770883, 29.93915650729347], [-97.17352799999999, 29.915565], [-97.20223057367797, 29.8902572754653], [-97.21142086030504, 29.88351017973467], [-97.22206550050628, 29.88641471592426], [-97.2283713005981, 29.88411100450525], [-97.23758223816577, 29.87740964874911], [-97.24430903400489, 29.87486638305354], [-97.24989358805864, 29.89728810877919], [-97.25676407191472, 29.90476041161973], [-97.25308413828192, 29.9314372405624], [-97.2440058387558, 29.93754743642529], [-97.24364408167003, 29.94342163709359], [-97.25127727930155, 29.95300847510002], [-97.24345824023348, 29.96727429616478], [-97.2256531885316, 29.9929267110669], [-97.21652479358526, 29.9930787268996], [-97.20123960041462, 29.98319034248306], [-97.18147759813029, 29.99952374750087]]]]}}, {"type": "Feature", "properties": {"id": "20", "name": "#20-Rosanky"}, "geometry": {"type": "MultiPolygon", "coordinates": [[[[-97.25682012360342, 29.83633658930868], [-97.26263070059701, 29.83929219493217], [-97.275103, 29.823432], [-97.30100081263541, 29.8129528553835], [-97.30261049660207, 29.833077514132], [-97.30653060084926, 29.84925428859924], [-97.30574992486612, 29.85439373882154], [-97.31133508190524, 29.87116771166627], [-97.31412091489445, 29.91000253459243], [-97.3128400453748, 29.91714546858121], [-97.30848580336622, 29.92511191024634], [-97.30409393062298, 29.93120991150149], [-97.30339352095699, 29.931953205343], [-97.2942449316591, 29.94088679155699], [-97.28751760186225, 29.95261115337772], [-97.26639003831986, 29.95184295402307], [-97.25256292964471, 29.95020338487863], [-97.24360656583647, 29.94403081806963], [-97.24364408167003, 29.94342163709359], [-97.2440058387558, 29.93754743642529], [-97.25308413828192, 29.9314372405624], [-97.258826659035, 29.90428711730029], [-97.25024469383325, 29.89457468055242], [-97.24617874, 29.87228763999995], [-97.23600431285143, 29.8750014382211], [-97.2291773835141, 29.88191065939186], [-97.21955349633126, 29.88470103681422], [-97.21414237126228, 29.87744016226019], [-97.25682012360342, 29.83633658930868]]]]}}, {"type": "Feature", "properties": {"id": "29", "name": "#29-Paige"}, "geometry": {"type": "MultiPolygon", "coordinates": [[[[-97.18718699999998, 30.329651], [-97.16879739860501, 30.29679605140382], [-97.19678949753408, 30.27902308774515], [-97.19486, 30.26941700000003], [-97.18888102175382, 30.26594580131338], [-97.18461815900531, 30.26422171629907], [-97.16837896935249, 30.2501003225128], [-97.16835365416411, 30.25000155599905], [-97.167196, 30.245485], [-97.15583156736471, 30.22981648061699], [-97.14796395794167, 30.22399384915471], [-97.1385968763693, 30.22398501541659], [-97.122332, 30.198919], [-97.09572908865209, 30.20330037157849], [-97.08547640124327, 30.24636023303517], [-97.09846302006892, 30.2739786188133], [-97.18718699999998, 30.329651]]]]}}, {"type": "Feature", "properties": {"id": "28", "name": "#28-Hwy 21E"}, "geometry": {"type": "MultiPolygon", "coordinates": [[[[-97.19631104479876, 30.11636465619199], [-97.21466216604307, 30.12548492230262], [-97.20797227579547, 30.14176635641762], [-97.19483078251925, 30.14456885858808], [-97.20432001960432, 30.15050544022337], [-97.21033658698495, 30.15575102309678], [-97.21556326337732, 30.16185500845002], [-97.22550477802959, 30.17208544840924], [-97.22107682903437, 30.20916283813418], [-97.21936502368673, 30.22946216572011], [-97.21430056190744, 30.23871975173138], [-97.21348195542284, 30.23897240854847], [-97.21220353730685, 30.23962760032442], [-97.21073923146669, 30.23971533203235], [-97.20941036016605, 30.23946708834603], [-97.20743164097584, 30.2357379637183], [-97.20499629428016, 30.23360703535959], [-97.20050612381004, 30.23212299596693], [-97.17356510098931, 30.24506077528761], [-97.15337794688284, 30.22487737600781], [-97.13711900000001, 30.217153], [-97.13198143344187, 30.19760939410399], [-97.1128671749932, 30.1782384640264], [-97.0966241731926, 30.14520687837564], [-97.13203596891526, 30.1166523603817], [-97.16696758117872, 30.11314302738454], [-97.17907983577179, 30.11326810494933], [-97.18153514810112, 30.11275326434499], [-97.1858200298308, 30.11488578339589], [-97.19631104479876, 30.11636465619199]]]]}}, {"type": "Feature", "properties": {"id": "27", "name": "Section 27"}, "geometry": {"type": "MultiPolygon", "coordinates": [[[[-97.29773627986056, 30.14208729664847], [-97.26991317325296, 30.14608468710749], [-97.2565568130684, 30.1507800346308], [-97.24044034994792, 30.14760750252045], [-97.2363795088467, 30.13745539976739], [-97.25357463288474, 30.13295040417071], [-97.27819348206089, 30.10769704857244], [-97.28250812573094, 30.10274789848032], [-97.28463372224486, 30.09786219903041], [-97.2888849152727, 30.09868705737909], [-97.29009047747464, 30.09640283425965], [-97.29592793655765, 30.08891565847927], [-97.29522997949339, 30.0844741135248], [-97.2954837820622, 30.08149193334108], [-97.29738730132838, 30.07895390765281], [-97.29871976481473, 30.07514686912042], [-97.307247, 30.07893299999999], [-97.30753940408147, 30.08015946985475], [-97.32705047656005, 30.10008297150765], [-97.32654287142239, 30.10833155499452], [-97.30864979032013, 30.10858535756335], [-97.30903722259421, 30.12011126208195], [-97.29811698371381, 30.12190999242675], [-97.29773627986056, 30.14208729664847]]]]}}, {"type": "Feature", "properties": {"id": "26b", "name": "#26B-Hwy 2104E STR 79"}, "geometry": {"type": "MultiPolygon", "coordinates": [[[[-97.12774271058778, 30.1117518728024], [-97.10644517433816, 30.11965257173371], [-97.09133079377386, 30.13442344364879], [-97.07951239941146, 30.13540867739044], [-97.08135824984612, 30.130004497845], [-97.08113669029902, 30.11790901790133], [-97.07967064979653, 30.11014148983802], [-97.077232130961, 30.10310706287125], [-97.07720085739851, 30.10166568586752], [-97.08113669029905, 30.09509780864859], [-97.08388731428377, 30.08997595709079], [-97.0915564776659, 30.07068927483526], [-97.10456441872078, 30.05924484774405], [-97.11209242857103, 30.05328289949976], [-97.11993529510568, 30.04521277275819], [-97.12301719330522, 30.04332696063288], [-97.1364574295783, 30.04098639543157], [-97.13800181599669, 30.04070955625966], [-97.14338464266365, 30.03911312456811], [-97.15836757235328, 30.03823577144683], [-97.1597665966214, 30.03804607324096], [-97.16186854160351, 30.03752011616324], [-97.16200769834433, 30.03867040768767], [-97.1650323365914, 30.04350594756271], [-97.16449813605088, 30.0448106247919], [-97.16398287307712, 30.04871803567641], [-97.16153537395164, 30.05125141196417], [-97.15051880908653, 30.05884173905664], [-97.13512814654534, 30.06984381760146], [-97.13259232863426, 30.08392932677951], [-97.13003140285534, 30.0986072254567], [-97.12774271058778, 30.1117518728024]]]]}}, {"type": "Feature", "properties": {"id": "25", "name": "Section 25"}, "geometry": {"type": "MultiPolygon", "coordinates": [[[[-97.18459099705157, 30.11323820334786], [-97.18153514810112, 30.11275326434499], [-97.16696758117872, 30.11314302738454], [-97.16100322081131, 30.11098570554951], [-97.16049561567364, 30.09969149123673], [-97.16417575292162, 30.08078319985914], [-97.16722138374756, 30.06999659068401], [-97.16633307475666, 30.05882927765563], [-97.16303364136192, 30.05299181857262], [-97.16493716062811, 30.04829647104932], [-97.1650323365914, 30.04350594756272], [-97.16430265420605, 30.04068239398453], [-97.162185, 30.03721099999997], [-97.16160600191225, 30.03360764737848], [-97.16201843108661, 30.03053029123146], [-97.1624467758779, 30.02883092322078], [-97.16658208549683, 30.02683123172594], [-97.18175158081289, 30.0300226860938], [-97.1851144648498, 30.03275106370869], [-97.18708143475821, 30.03497183618592], [-97.18866770081338, 30.03909612792935], [-97.19298234448343, 30.04493358701236], [-97.19717008686908, 30.04823302040711], [-97.19951286464187, 30.04966065648401], [-97.2057993742092, 30.0538166769213], [-97.20541867035597, 30.06066934627962], [-97.1801947482996, 30.09474830875067], [-97.17990560904659, 30.102265929329], [-97.18576067892008, 30.10768729032298], [-97.18530481677645, 30.11231816903585], [-97.18520964081311, 30.11295267545793], [-97.18503515154703, 30.113127164724], [-97.18459099705157, 30.11323820334786]]]]}}, {"type": "Feature", "properties": {"id": "24", "name": "#24-STR 43"}, "geometry": {"type": "MultiPolygon", "coordinates": [[[[-97.24354773719733, 30.08292806074446], [-97.25226270711298, 30.0954711568832], [-97.25450353632382, 30.10349477115431], [-97.25002187790213, 30.11122924617239], [-97.23238438346836, 30.11202437911818], [-97.21771056637797, 30.10718129663022], [-97.21279519907677, 30.11245808799769], [-97.18539925485382, 30.11440977795553], [-97.18576067892008, 30.10768729032298], [-97.18214643825743, 30.1045790433531], [-97.17990560904659, 30.102265929329], [-97.1801947482996, 30.09474830875067], [-97.18810993535097, 30.0864716976332], [-97.19403729003773, 30.08271288734404], [-97.21138564521848, 30.06521996253677], [-97.21037365783293, 30.0380408727536], [-97.21225306297752, 30.02546331524756], [-97.21507217069438, 30.02488503674152], [-97.21810813285101, 30.02611387856683], [-97.22389091791126, 30.02777642927165], [-97.23119168404985, 30.02857156221744], [-97.23661304504382, 30.0209093720126], [-97.24225126047756, 30.01953596056079], [-97.24601007076673, 30.02242735309092], [-97.24615464039324, 30.02618616338008], [-97.27846595191737, 30.03254722694636], [-97.2674786603029, 30.05336525316326], [-97.27210488835111, 30.07273758311511], [-97.24354773719733, 30.08292806074446]]]]}}, {"type": "Feature", "properties": {"id": "10b", "name": "#10B-Swiftex"}, "geometry": {"type": "MultiPolygon", "coordinates": [[[[-97.25115299180285, 30.2274014184254], [-97.25391760421593, 30.2298842868983], [-97.25547104748695, 30.2283583514431], [-97.2594264997902, 30.22013828775506], [-97.25493027568308, 30.21582397088463], [-97.25640452375205, 30.21462297494421], [-97.2585275811071, 30.21262645678562], [-97.25964485385374, 30.21082851020575], [-97.2621861820804, 30.2086876945136], [-97.26520326517152, 30.20648359866798], [-97.2706809103747, 30.2022291480905], [-97.27259881492401, 30.19670684362637], [-97.27357796804829, 30.19527096733204], [-97.27371818622865, 30.19296585610263], [-97.27308433011224, 30.19108853389961], [-97.27190875497465, 30.19055841038841], [-97.27107273415811, 30.19093851094331], [-97.27089111780242, 30.19048323707706], [-97.27078165340889, 30.18996715852083], [-97.26978735527652, 30.18991287092667], [-97.26960574586596, 30.18945759525561], [-97.26961618220737, 30.18886075557464], [-97.26807853468199, 30.18735830568489], [-97.26664208062462, 30.18684527470518], [-97.26629229858429, 30.1750151269759], [-97.26642265915612, 30.17366770741047], [-97.27168153552432, 30.17371652594769], [-97.27519726196508, 30.17318641250867], [-97.27549315675547, 30.16813906135162], [-97.27475595279984, 30.16694601091986], [-97.27335074839623, 30.16538947681125], [-97.27241267035379, 30.16440093542653], [-97.269783691064, 30.16385456123195], [-97.26323327669033, 30.16684872753807], [-97.26244542267736, 30.15998752163175], [-97.26456671907374, 30.15789529633821], [-97.24645866462136, 30.16091749170152], [-97.22751330751352, 30.1421405837679], [-97.21204749997969, 30.151312689312], [-97.21656736789043, 30.1625069474268], [-97.22550477802959, 30.17208544840922], [-97.22107682903435, 30.20916283813418], [-97.24259052670709, 30.22776838121525], [-97.25115299180285, 30.2274014184254]]]]}}, {"type": "Feature", "properties": {"id": "9b", "name": "#9B-Bastrop City STR 260"}, "geometry": {"type": "MultiPolygon", "coordinates": [[[[-97.30219583428259, 30.1278557342939], [-97.31220096115494, 30.12646914944005], [-97.31510231579011, 30.13133447473394], [-97.31621095854628, 30.13752444416741], [-97.31373851820241, 30.13841906420916], [-97.3124517547861, 30.13922595739219], [-97.31063002288782, 30.14098699025605], [-97.31040475626838, 30.14133674632309], [-97.30930806351586, 30.1423385899727], [-97.30679222288164, 30.14471121815611], [-97.30382830972238, 30.14683212324114], [-97.30098708451783, 30.14829015257011], [-97.2992984908463, 30.15006952695593], [-97.29703237091225, 30.15099222375575], [-97.2953997683737, 30.15295239503401], [-97.29323138945784, 30.15270453837787], [-97.30219583428259, 30.1278557342939]]]]}}, {"type": "Feature", "properties": {"id": "8b", "name": "#8B-McDade"}, "geometry": {"type": "MultiPolygon", "coordinates": [[[[-97.17092803691638, 30.2986403835818], [-97.19901474216269, 30.2826029162558], [-97.19486, 30.26941700000004], [-97.17036722390733, 30.25059496906989], [-97.17356510098931, 30.24506077528761], [-97.20050612381004, 30.23212299596691], [-97.20499629428016, 30.23360703535959], [-97.20743164097584, 30.23573796371828], [-97.20941036016602, 30.23946708834603], [-97.21222622978289, 30.24007592501993], [-97.21348195542284, 30.23897240854847], [-97.22472497353702, 30.24648683219542], [-97.24259052670709, 30.22776838121525], [-97.25115299180285, 30.2274014184254], [-97.25397651495604, 30.2297566121916], [-97.25146789494022, 30.23172794140776], [-97.24937904874609, 30.23413470176126], [-97.24591120326363, 30.23636152662384], [-97.24424976279292, 30.2379465215682], [-97.25272177725124, 30.24529245180417], [-97.25370001782704, 30.24847273498797], [-97.25680640250968, 30.25139772416275], [-97.2542546197744, 30.25405824540718], [-97.25195731965978, 30.25771482365048], [-97.24839476255369, 30.27128155552761], [-97.23744712235343, 30.28351981941194], [-97.23408169576203, 30.28581967079172], [-97.22808956442623, 30.28897151210431], [-97.21433733645924, 30.29639527124047], [-97.21061680143134, 30.29728986886913], [-97.20489919099028, 30.29716427563795], [-97.20448350869472, 30.29904942124524], [-97.20918751909284, 30.30998628217732], [-97.2099294624624, 30.31113094773669], [-97.21239345586625, 30.31045557563906], [-97.22373736908851, 30.31585723702422], [-97.22126287780023, 30.32012529768374], [-97.21860901546783, 30.31923829269103], [-97.21148384106075, 30.33053339348555], [-97.21380933060503, 30.331510604387], [-97.21472264038752, 30.33223214597221], [-97.21524944796461, 30.33323203169259], [-97.21487024527116, 30.33611039387574], [-97.21401781434476, 30.33803686751945], [-97.21115702619834, 30.34194259900315], [-97.1995380110904, 30.33596710551905], [-97.18858698699006, 30.33036606184817], [-97.18094758691767, 30.31711584631331], [-97.17459043137569, 30.30589386580526], [-97.17092803691638, 30.2986403835818]]]]}}]}